$$SOE
2460154.500000000, A.D. 2023-Jul-29 00:00:00.0000, 2.638486336285762E+08, -2.086750403907086E+08, 3.557939496295750E+06,
2460161.500000000, A.D. 2023-Aug-05 00:00:00.0000, 2.726085441885077E+08, -2.001895007879969E+08, 2.491797146927297E+06,
2460168.500000000, A.D. 2023-Aug-12 00:00:00.0000, 2.810264602980874E+08, -1.914527377287389E+08, 1.422524586626545E+06,
2460175.500000000, A.D. 2023-Aug-19 00:00:00.0000, 2.890974477884573E+08, -1.824795464353631E+08, 3.514920083073601E+05,
2460182.500000000, A.D. 2023-Aug-26 00:00:00.0000, 2.968172223860555E+08, -1.732845908028030E+08, -7.199712337393984E+05,
2460189.500000000, A.D. 2023-Sep-02 00:00:00.0000, 3.041821205702769E+08, -1.638823793845229E+08, -1.790577093935646E+06,
2460196.500000000, A.D. 2023-Sep-09 00:00:00.0000, 3.111890704589085E+08, -1.542872443022485E+08, -2.859079102350779E+06,
2460203.500000000, A.D. 2023-Sep-16 00:00:00.0000, 3.178355630914931E+08, -1.445133229691088E+08, -3.924272469442673E+06,
2460210.500000000, A.D. 2023-Sep-23 00:00:00.0000, 3.241196247034951E+08, -1.345745421729496E+08, -4.984994063219637E+06,
2460217.500000000, A.D. 2023-Sep-30 00:00:00.0000, 3.300397898037633E+08, -1.244846031662151E+08, -6.040122149187528E+06,
2460224.500000000, A.D. 2023-Oct-07 00:00:00.0000, 3.355950728261057E+08, -1.142569681474321E+08, -7.088575739935614E+06,
2460231.500000000, A.D. 2023-Oct-14 00:00:00.0000, 3.407849394880593E+08, -1.039048512879702E+08, -8.129313938688599E+06,
2460238.500000000, A.D. 2023-Oct-21 00:00:00.0000, 3.456092811571577E+08, -9.344121253800806E+07, -9.161335458788510E+06,
2460245.500000000, A.D. 2023-Oct-28 00:00:00.0000, 3.500683908601937E+08, -8.287875179251152E+07, -1.018367801866549E+07,
2460252.500000000, A.D. 2023-Nov-04 00:00:00.0000, 3.541629397325429E+08, -7.222990403655168E+07, -1.119541757409480E+07,
2460259.500000000, A.D. 2023-Nov-11 00:00:00.0000, 3.578939541187555E+08, -6.150683592623521E+07, -1.219566746536301E+07,
2460266.500000000, A.D. 2023-Nov-18 00:00:00.0000, 3.612627935658734E+08, -5.072144373344719E+07, -1.318357751590273E+07,
2460273.500000000, A.D. 2023-Nov-25 00:00:00.0000, 3.642711297943821E+08, -3.988535250364983E+07, -1.415833309732543E+07,
2460280.500000000, A.D. 2023-Dec-02 00:00:00.0000, 3.669209266787460E+08, -2.900991631799150E+07, -1.511915417346970E+07,
2460287.500000000, A.D. 2023-Dec-09 00:00:00.0000, 3.692144213117602E+08, -1.810621960745587E+07, -1.606529434370957E+07,
2460294.500000000, A.D. 2023-Dec-16 00:00:00.0000, 3.711541064285595E+08, -7.185079404101003E+06, -1.699603991844443E+07,
2460301.500000000, A.D. 2023-Dec-23 00:00:00.0000, 3.727427145187747E+08, 3.742952254559771E+06, -1.791070900916648E+07,
2460308.500000000, A.D. 2023-Dec-30 00:00:00.0000, 3.739832022661167E+08, 1.466758690966221E+07, -1.880865042991781E+07,
2460315.500000000, A.D. 2024-Jan-06 00:00:00.0000, 3.748787335253552E+08, 2.557879697424556E+07, -1.968924244575877E+07,
2460322.500000000, A.D. 2024-Jan-13 00:00:00.0000, 3.754326639830973E+08, 3.646680999953123E+07, -2.055189181204613E+07,
2460329.500000000, A.D. 2024-Jan-20 00:00:00.0000, 3.756485286926287E+08, 4.732210306671286E+07, -2.139603296876734E+07,
2460336.500000000, A.D. 2024-Jan-27 00:00:00.0000, 3.755300304225080E+08, 5.813539801985917E+07, -2.222112715392359E+07,
2460343.500000000, A.D. 2024-Feb-03 00:00:00.0000, 3.750810283595825E+08, 6.889765664800628E+07, -2.302666147719878E+07,
2460350.500000000, A.D. 2024-Feb-10 00:00:00.0000, 3.743055274117868E+08, 7.960007557620421E+07, -2.381214800574705E+07,
2460357.500000000, A.D. 2024-Feb-17 00:00:00.0000, 3.732076682167446E+08, 9.023408091938859E+07, -2.457712287633859E+07,
2460364.500000000, A.D. 2024-Feb-24 00:00:00.0000, 3.717917178593629E+08, 1.007913227553757E+08, -2.532114543772454E+07,
2460371.500000000, A.D. 2024-Mar-02 00:00:00.0000, 3.700620612955446E+08, 1.112636694219129E+08, -2.604379743000803E+07,
2460378.500000000, A.D. 2024-Mar-09 00:00:00.0000, 3.680231935896606E+08, 1.216432016083219E+08, -2.674468222012051E+07,
2460385.500000000, A.D. 2024-Mar-16 00:00:00.0000, 3.656797133301472E+08, 1.319222064674961E+08, -2.742342411460318E+07,
2460392.500000000, A.D. 2024-Mar-23 00:00:00.0000, 3.630363170859240E+08, 1.420931728821232E+08, -2.807966765003544E+07,
2460399.500000000, A.D. 2024-Mar-30 00:00:00.0000, 3.600977926302342E+08, 1.521487878848260E+08, -2.871307665759666E+07,
2460406.500000000, A.D. 2024-Apr-06 00:00:00.0000, 3.568690111647493E+08, 1.620819308887353E+08, -2.932333340108016E+07,
2460413.500000000, A.D. 2024-Apr-13 00:00:00.0000, 3.533549220704017E+08, 1.718856665809665E+08, -2.991013804650829E+07,
2460420.500000000, A.D. 2024-Apr-20 00:00:00.0000, 3.495605492042568E+08, 1.815532391703591E+08, -3.047320815723637E+07,
2460427.500000000, A.D. 2024-Apr-27 00:00:00.0000, 3.454909871999686E+08, 1.910780674422992E+08, -3.101227812113580E+07,
2460434.500000000, A.D. 2024-May-04 00:00:00.0000, 3.411513978362433E+08, 2.004537399282645E+08, -3.152709857525358E+07,
2460441.500000000, A.D. 2024-May-11 00:00:00.0000, 3.365470066874380E+08, 2.096740100963850E+08, -3.201743585763177E+07,
2460448.500000000, A.D. 2024-May-18 00:00:00.0000, 3.316831001127130E+08, 2.187327915917753E+08, -3.248307149105987E+07,
2460455.500000000, A.D. 2024-May-25 00:00:00.0000, 3.265650225831243E+08, 2.276241535280621E+08, -3.292380170038421E+07,
2460462.500000000, A.D. 2024-Jun-01 00:00:00.0000, 3.211981743844434E+08, 2.363423157834498E+08, -3.333943697258434E+07,
2460469.500000000, A.D. 2024-Jun-08 00:00:00.0000, 3.155880099253623E+08, 2.448816442894839E+08, -3.372980168375690E+07,
2460476.500000000, A.D. 2024-Jun-15 00:00:00.0000, 3.097400370378375E+08, 2.532366468651533E+08, -3.409473378527524E+07,
2460483.500000000, A.D. 2024-Jun-22 00:00:00.0000, 3.036598162493245E+08, 2.614019707735458E+08, -3.443408436049704E+07,
2460490.500000000, A.D. 2024-Jun-29 00:00:00.0000, 2.973529578874528E+08, 2.693724001841655E+08, -3.474771700504810E+07,
2460497.500000000, A.D. 2024-Jul-06 00:00:00.0000, 2.908251196505890E+08, 2.771428510763584E+08, -3.503550747511691E+07,
2460504.500000000, A.D. 2024-Jul-13 00:00:00.0000, 2.840820065817109E+08, 2.847083664086685E+08, -3.529734355168159E+07,
2460511.500000000, A.D. 2024-Jul-20 00:00:00.0000, 2.771293714440210E+08, 2.920641127029892E+08, -3.553312484373334E+07,
2460518.500000000, A.D. 2024-Jul-27 00:00:00.0000, 2.699730148280416E+08, 2.992053770865806E+08, -3.574276254800069E+07,
2460525.500000000, A.D. 2024-Aug-03 00:00:00.0000, 2.626187852509462E+08, 3.061275644198896E+08, -3.592617922044691E+07,
2460532.500000000, A.D. 2024-Aug-10 00:00:00.0000, 2.550725794027328E+08, 3.128261945084026E+08, -3.608330857486053E+07,
2460539.500000000, A.D. 2024-Aug-17 00:00:00.0000, 2.473403425760675E+08, 3.192968994228768E+08, -3.621409531092040E+07,
2460546.500000000, A.D. 2024-Aug-24 00:00:00.0000, 2.394280692977099E+08, 3.255354209083968E+08, -3.631849497598088E+07,
2460553.500000000, A.D. 2024-Aug-31 00:00:00.0000, 2.313418042677974E+08, 3.315376078238102E+08, -3.639647387613246E+07,
2460560.500000000, A.D. 2024-Sep-07 00:00:00.0000, 2.230876439641814E+08, 3.372994137416337E+08, -3.644800905984166E+07,
2460567.500000000, A.D. 2024-Sep-14 00:00:00.0000, 2.146717389904188E+08, 3.428168957074100E+08, -3.647308830094118E+07,
2460574.500000000, A.D. 2024-Sep-21 00:00:00.0000, 2.061002951304040E+08, 3.480862145706139E+08, -3.647170986082080E+07,
2460581.500000000, A.D. 2024-Sep-28 00:00:00.0000, 1.973795726106524E+08, 3.531036336619939E+08, -3.644388224791272E+07,
2460588.500000000, A.D. 2024-Oct-05 00:00:00.0000, 1.885158872341808E+08, 3.578655158274981E+08, -3.638962431152327E+07,
2460595.500000000, A.D. 2024-Oct-12 00:00:00.0000, 1.795156130215381E+08, 3.623683218024714E+08, -3.630896539395456E+07,
2460602.500000000, A.D. 2024-Oct-19 00:00:00.0000, 1.703851846007832E+08, 3.666086096573620E+08, -3.620194540209778E+07,
2460609.500000000, A.D. 2024-Oct-26 00:00:00.0000, 1.611310993069374E+08, 3.705830345180030E+08, -3.606861486081558E+07,
2460616.500000000, A.D. 2024-Nov-02 00:00:00.0000, 1.517599192422581E+08, 3.742883484175699E+08, -3.590903498387587E+07,
2460623.500000000, A.D. 2024-Nov-09 00:00:00.0000, 1.422782733884791E+08, 3.777214003066606E+08, -3.572327776969901E+07,
2460630.500000000, A.D. 2024-Nov-16 00:00:00.0000, 1.326928597917174E+08, 3.808791362275904E+08, -3.551142612434301E+07,
2460637.500000000, A.D. 2024-Nov-23 00:00:00.0000, 1.230104478617876E+08, 3.837585996087719E+08, -3.527357402009700E+07,
2460644.500000000, A.D. 2024-Nov-30 00:00:00.0000, 1.132378809886727E+08, 3.863569316423600E+08, -3.500982671215260E+07,
2460651.500000000, A.D. 2024-Dec-07 00:00:00.0000, 1.033820798896491E+08, 3.886713721724379E+08, -3.472030101739199E+07,
2460658.500000000, A.D. 2024-Dec-14 00:00:00.0000, 9.345004599313608E+07, 3.906992623246813E+08, -3.440512549230731E+07,
2460665.500000000, A.D. 2024-Dec-21 00:00:00.0000, 8.344886253384323E+07, 3.924380476399319E+08, -3.406444039825551E+07,
2460672.500000000, A.D. 2024-Dec-28 00:00:00.0000, 7.338569531926756E+07, 3.938852787505897E+08, -3.369839787658273E+07,
2460679.500000000, A.D. 2025-Jan-04 00:00:00.0000, 6.326779575588750E+07, 3.950386119914989E+08, -3.330716237890552E+07,
2460686.500000000, A.D. 2025-Jan-11 00:00:00.0000, 5.310250430917116E+07, 3.958958116173764E+08, -3.289091105120909E+07,
2460693.500000000, A.D. 2025-Jan-18 00:00:00.0000, 4.289725347414252E+07, 3.964547527166094E+08, -3.244983406306744E+07,
2460700.500000000, A.D. 2025-Jan-25 00:00:00.0000, 3.265957049255899E+07, 3.967134243548631E+08, -3.198413494302823E+07,
2460707.500000000, A.D. 2025-Feb-01 00:00:00.0000, 2.239707999676200E+07, 3.966699329253067E+08, -3.149403093949018E+07,
2460714.500000000, A.D. 2025-Feb-08 00:00:00.0000, 1.211750662575543E+07, 3.963225057328321E+08, -3.097975341014829E+07,
2460721.500000000, A.D. 2025-Feb-15 00:00:00.0000, 1.828677626927256E+06, 3.956694948033901E+08, -3.044154824407327E+07,
$$EOE